ONEWEB-0116             
1 48046U 21025E   25164.88412195 -.00000186  00000+0 -54431-3 0  9994
2 48046  87.8975  33.3935 0001719  86.3701 273.7625 13.13469485205303
ONEWEB-0150             
1 48047U 21025F   25164.86042814  .00000279  00000+0  73030-3 0  9997
2 48047  87.8968  33.3964 0001766  77.2084 282.9242 13.13468109205199
ONEWEB-0107             
1 48048U 21025G   25164.86211844  .00000297  00000+0  77908-3 0  9997
2 48048  87.8967  33.3938 0002122  80.3110 279.8259 13.13469144205173
ONEWEB-0101             
1 48049U 21025H   25164.90104514 -.00000427  00000+0 -12055-2 0  9996
2 48049  87.8969  33.4230 0001958  84.4747 275.6605 13.13470534205151
ONEWEB-0113             
1 48050U 21025J   25164.91151194  .00000034  00000+0  56641-4 0  9998
2 48050  87.8966  33.3788 0001686  80.9463 279.1857 13.13974666205244
ONEWEB-0112             
1 48051U 21025K   25164.86719908  .00000190  00000+0  48637-3 0  9994
2 48051  87.8969  33.3899 0001822  80.6509 279.4826 13.13469687205242
ONEWEB-0156             
1 48052U 21025L   25164.87565955  .00000068  00000+0  15141-3 0  9995
2 48052  87.8973  33.3990 0001924  79.5470 280.5876 13.13470212205229
ONEWEB-0161             
1 48053U 21025M   25165.07880706  .00000408  00000+0  10816-2 0  9994
2 48053  87.8965  33.3752 0001996  80.3672 279.7682 13.13470442205196
